IRIDIUM 63              
1 25286U 98021B   25079.15694651  .00000999  00000+0  33435-3 0  9990
2 25286  86.3956 119.4954 0002237  96.1891 263.9560 14.36430665411334
IRIDIUM 69              
1 25319U 98026A   25078.67814485  .00001318  00000+0  40560-3 0  9990
2 25319  86.3981 133.2523 0001793  26.9326 333.1966 14.40829914410170
IRIDIUM 71              
1 25320U 98026B   25078.62770615  .00001125  00000+0  34386-3 0  9998
2 25320  86.3967 127.9822 0003622  59.3656 300.7900 14.41035467410695
IRIDIUM 73              
1 25344U 98032C   25079.48465679  .00001966  00000+0  48689-3 0  9991
2 25344  86.4355  84.4964 0001838  80.9842 279.1572 14.51520416417999
IRIDIUM 82              
1 25467U 98051A   25079.19570645  .00045815  00000+0  15304-2 0  9994
2 25467  86.3727 153.3111 0092827 272.8509  86.2117 15.26700834410359
